{"type": "FeatureCollection", "features": [ {"type": "Feature", "properties": {"norad_id": 41774, "name": "SKYSAT-C3", "group": "resource", "lat": -77.23068963564687, "lon": 161.74391392038677, "alt_km": 442.3821126960029, "timestamp": "2025-12-06T03:35:01.454835+00:00", "meta": {"OBJECT_NAME": "SKYSAT-C3", "OBJECT_ID": "2016-058E", "EPOCH": "2025-12-05T01:34:41.179296", "MEAN_MOTION": 15.44002146, "ECCENTRICITY": 0.00013999, "INCLINATION": 96.9303, "RA_OF_ASC_NODE": 13.1715, "ARG_OF_PERICENTER": 100.8138, "MEAN_ANOMALY": 259.3269, "EPHEMERIS_TYPE": 0, "CLASSIFICATION_TYPE": "U", "NORAD_CAT_ID": 41774, "ELEMENT_SET_NO": 999, "REV_AT_EPOCH": 51607, "BSTAR": 0.00073163747, "MEAN_MOTION_DOT": 0.00033364, "MEAN_MOTION_DDOT": 0}, "tle": {"line1": "1 41774U 16058E   25339.06575439  .00033364  00000+0  73164-3 0  9996", "line2": "2 41774  96.9303  13.1715 0001399 100.8138 259.3269 15.44002146516078"}}, "geometry": {"type": "Point", "coordinates": [161.74391392038677, -77.23068963564687]}}, {"type": "Feature", "properties": {"norad_id": 41785, "name": "ALSAT 1B", "group": "resource", "lat": 26.036944796867502, "lon": -11.607126034389756, "alt_km": 654.343459508781, "timestamp": "2025-12-06T03:35:01.454846+00:00", "meta": {"OBJECT_NAME": "ALSAT 1B", "OBJECT_ID": "2016-059C", "EPOCH": "2025-12-05T07:53:17.949408", "MEAN_MOTION": 14.72063602, "ECCENTRICITY": 0.00104796, "INCLINATION": 97.7818, "RA_OF_ASC_NODE": 351.4382, "ARG_OF_PERICENTER": 124.7977, "MEAN_ANOMALY": 235.4218, "EPHEMERIS_TYPE": 0, "CLASSIFICATION_TYPE": "U", "NORAD_CAT_ID": 41785, "ELEMENT_SET_NO": 999, "REV_AT_EPOCH": 49205, "BSTAR": 0.00014949488, "MEAN_MOTION_DOT": 8.93e-06, "MEAN_MOTION_DDOT": 0}, "tle": {"line1": "1 41785U 16059C   25339.32867997  .00000893  00000+0  14949-3 0  9998", "line2": "2 41785  97.7818 351.4382 0010479 124.7977 235.4218 14.72063602492057"}}, "geometry": {"type": "Point", "coordinates": [-11.607126034389756, 26.036944796867502]}}, {"type": "Feature", "properties": {"norad_id": 41787, "name": "PATHFINDER 1", "group": "resource", "lat": -37.8077096704919, "lon": 157.11259787260028, "alt_km": 685.6753572699754, "timestamp": "2025-12-06T03:35:01.454856+00:00", "meta": {"OBJECT_NAME": "PATHFINDER 1", "OBJECT_ID": "2016-059E", "EPOCH": "2025-12-05T06:57:21.032928", "MEAN_MOTION": 14.67300899, "ECCENTRICITY": 0.00300089, "INCLINATION": 97.8138, "RA_OF_ASC_NODE": 342.4092, "ARG_OF_PERICENTER": 103.8306, "MEAN_ANOMALY": 256.6242, "EPHEMERIS_TYPE": 0, "CLASSIFICATION_TYPE": "U", "NORAD_CAT_ID": 41787, "ELEMENT_SET_NO": 999, "REV_AT_EPOCH": 49127, "BSTAR": 0.00026387925, "MEAN_MOTION_DOT": 1.452e-05, "MEAN_MOTION_DDOT": 0}, "tle": {"line1": "1 41787U 16059E   25339.28982677  .00001452  00000+0  26388-3 0  9990", "line2": "2 41787  97.8138 342.4092 0030008 103.8306 256.6242 14.67300899491278"}}, "geometry": {"type": "Point", "coordinates": [157.11259787260028, -37.8077096704919]}}, {"type": "Feature", "properties": {"norad_id": 41790, "name": "SCATSAT 1", "group": "resource", "lat": -63.29565683139104, "lon": 53.283876456760694, "alt_km": 672.6925917411172, "timestamp": "2025-12-06T03:35:01.454866+00:00", "meta": {"OBJECT_NAME": "SCATSAT 1", "OBJECT_ID": "2016-059H", "EPOCH": "2025-12-05T03:31:14.524032", "MEAN_MOTION": 14.78896376, "ECCENTRICITY": 0.00559103, "INCLINATION": 98.1474, "RA_OF_ASC_NODE": 35.7224, "ARG_OF_PERICENTER": 152.0704, "MEAN_ANOMALY": 208.3527, "EPHEMERIS_TYPE": 0, "CLASSIFICATION_TYPE": "U", "NORAD_CAT_ID": 41790, "ELEMENT_SET_NO": 999, "REV_AT_EPOCH": 7290, "BSTAR": 0.00050243802, "MEAN_MOTION_DOT": 3.745e-05, "MEAN_MOTION_DDOT": 0}, "tle": {"line1": "1 41790U 16059H   25339.14669588  .00003745  00000+0  50244-3 0  9997", "line2": "2 41790  98.1474  35.7224 0055910 152.0704 208.3527 14.78896376 72902"}}, "geometry": {"type": "Point", "coordinates": [53.283876456760694, -63.29565683139104]}}, {"type": "Feature", "properties": {"norad_id": 41875, "name": "GOKTURK 1A", "group": "resource", "lat": 41.7253813751002, "lon": -134.73369333961915, "alt_km": 680.1866992131263, "timestamp": "2025-12-06T03:35:01.454877+00:00", "meta": {"OBJECT_NAME": "GOKTURK 1A", "OBJECT_ID": "2016-073A", "EPOCH": "2025-12-05T07:41:26.932704", "MEAN_MOTION": 14.62765901, "ECCENTRICITY": 0.00012426, "INCLINATION": 98.1431, "RA_OF_ASC_NODE": 231.7846, "ARG_OF_PERICENTER": 82.1977, "MEAN_ANOMALY": 277.9366, "EPHEMERIS_TYPE": 0, "CLASSIFICATION_TYPE": "U", "NORAD_CAT_ID": 41875, "ELEMENT_SET_NO": 999, "REV_AT_EPOCH": 48048, "BSTAR": 0.00017894904, "MEAN_MOTION_DOT": 8.66e-06, "MEAN_MOTION_DDOT": 0}, "tle": {"line1": "1 41875U 16073A   25339.32045061  .00000866  00000+0  17895-3 0  9997", "line2": "2 41875  98.1431 231.7846 0001242  82.1977 277.9366 14.62765901480482"}}, "geometry": {"type": "Point", "coordinates": [-134.73369333961915, 41.7253813751002]}}, {"type": "Feature", "properties": {"norad_id": 41877, "name": "RESOURCESAT-2A", "group": "resource", "lat": -13.458595192843958, "lon": 52.162279900861726, "alt_km": 824.0039040214233, "timestamp": "2025-12-06T03:35:01.454887+00:00", "meta": {"OBJECT_NAME": "RESOURCESAT-2A", "OBJECT_ID": "2016-074A", "EPOCH": "2025-12-05T07:22:38.272224", "MEAN_MOTION": 14.21594666, "ECCENTRICITY": 0.00011462, "INCLINATION": 98.7766, "RA_OF_ASC_NODE": 49.2065, "ARG_OF_PERICENTER": 291.8964, "MEAN_ANOMALY": 68.2091, "EPHEMERIS_TYPE": 0, "CLASSIFICATION_TYPE": "U", "NORAD_CAT_ID": 41877, "ELEMENT_SET_NO": 999, "REV_AT_EPOCH": 46675, "BSTAR": 0.00017924054, "MEAN_MOTION_DOT": 3.49e-06, "MEAN_MOTION_DDOT": 0}, "tle": {"line1": "1 41877U 16074A   25339.30738741  .00000349  00000+0  17924-3 0  9991", "line2": "2 41877  98.7766  49.2065 0001146 291.8964  68.2091 14.21594666466757"}}, "geometry": {"type": "Point", "coordinates": [52.162279900861726, -13.458595192843958]}}, {"type": "Feature", "properties": {"norad_id": 41948, "name": "CARTOSAT-2D", "group": "resource", "lat": -20.943510493845526, "lon": -145.11908548472599, "alt_km": 511.02574359579194, "timestamp": "2025-12-06T03:35:01.454897+00:00", "meta": {"OBJECT_NAME": "CARTOSAT-2D", "OBJECT_ID": "2017-008A", "EPOCH": "2025-12-05T06:09:03.042144", "MEAN_MOTION": 15.19144566, "ECCENTRICITY": 0.00040177, "INCLINATION": 97.4401, "RA_OF_ASC_NODE": 36.8683, "ARG_OF_PERICENTER": 188.2714, "MEAN_ANOMALY": 171.8456, "EPHEMERIS_TYPE": 0, "CLASSIFICATION_TYPE": "U", "NORAD_CAT_ID": 41948, "ELEMENT_SET_NO": 999, "REV_AT_EPOCH": 48813, "BSTAR": 0.00078146284, "MEAN_MOTION_DOT": 0.00016379, "MEAN_MOTION_DDOT": 0}, "tle": {"line1": "1 41948U 17008A   25339.25628521  .00016379  00000+0  78146-3 0  9999", "line2": "2 41948  97.4401  36.8683 0004017 188.2714 171.8456 15.19144566488138"}}, "geometry": {"type": "Point", "coordinates": [-145.11908548472599, -20.943510493845526]}}, {"type": "Feature", "properties": {"norad_id": 42063, "name": "SENTINEL-2B", "group": "resource", "lat": 79.06554123874355, "lon": -75.98023904827782, "alt_km": 780.8438106347612, "timestamp": "2025-12-06T03:35:01.454908+00:00", "meta": {"OBJECT_NAME": "SENTINEL-2B", "OBJECT_ID": "2017-013A", "EPOCH": "2025-12-05T06:59:35.348640", "MEAN_MOTION": 14.30811552, "ECCENTRICITY": 0.00011222, "INCLINATION": 98.5725, "RA_OF_ASC_NODE": 51.8417, "ARG_OF_PERICENTER": 98.0006, "MEAN_ANOMALY": 262.1304, "EPHEMERIS_TYPE": 0, "CLASSIFICATION_TYPE": "U", "NORAD_CAT_ID": 42063, "ELEMENT_SET_NO": 999, "REV_AT_EPOCH": 45691, "BSTAR": 0.00014463966, "MEAN_MOTION_DOT": 3.35e-06, "MEAN_MOTION_DDOT": 0}, "tle": {"line1": "1 42063U 17013A   25339.29138135  .00000335  00000+0  14464-3 0  9993", "line2": "2 42063  98.5725  51.8417 0001122  98.0006 262.1304 14.30811552456911"}}, "geometry": {"type": "Point", "coordinates": [-75.98023904827782, 79.06554123874355]}}, {"type": "Feature", "properties": {"norad_id": 42767, "name": "CARTOSAT-2E", "group": "resource", "lat": 67.85794739938318, "lon": -123.40129604528005, "alt_km": 503.1129371454135, "timestamp": "2025-12-06T03:35:01.454919+00:00", "meta": {"OBJECT_NAME": "CARTOSAT-2E", "OBJECT_ID": "2017-036C", "EPOCH": "2025-12-05T08:07:40.986912", "MEAN_MOTION": 15.19207422, "ECCENTRICITY": 0.00022993, "INCLINATION": 97.4568, "RA_OF_ASC_NODE": 37.0219, "ARG_OF_PERICENTER": 275.3343, "MEAN_ANOMALY": 84.7629, "EPHEMERIS_TYPE": 0, "CLASSIFICATION_TYPE": "U", "NORAD_CAT_ID": 42767, "ELEMENT_SET_NO": 999, "REV_AT_EPOCH": 46871, "BSTAR": 0.00044136024, "MEAN_MOTION_DOT": 9.228e-05, "MEAN_MOTION_DDOT": 0}, "tle": {"line1": "1 42767U 17036C   25339.33866883  .00009228  00000+0  44136-3 0  9991", "line2": "2 42767  97.4568  37.0219 0002299 275.3343  84.7629 15.19207422468713"}}, "geometry": {"type": "Point", "coordinates": [-123.40129604528005, 67.85794739938318]}}, {"type": "Feature", "properties": {"norad_id": 42920, "name": "FORMOSAT-5", "group": "resource", "lat": -19.131928653062293, "lon": 57.48242364324305, "alt_km": 720.7946781460514, "timestamp": "2025-12-06T03:35:01.454930+00:00", "meta": {"OBJECT_NAME": "FORMOSAT-5", "OBJECT_ID": "2017-049A", "EPOCH": "2025-12-05T06:09:26.842752", "MEAN_MOTION": 14.50998366, "ECCENTRICITY": 0.00102111, "INCLINATION": 98.246, "RA_OF_ASC_NODE": 53.7238, "ARG_OF_PERICENTER": 320.6466, "MEAN_ANOMALY": 39.3986, "EPHEMERIS_TYPE": 0, "CLASSIFICATION_TYPE": "U", "NORAD_CAT_ID": 42920, "ELEMENT_SET_NO": 999, "REV_AT_EPOCH": 43855, "BSTAR": 0.00014027233, "MEAN_MOTION_DOT": 5.11e-06, "MEAN_MOTION_DDOT": 0}, "tle": {"line1": "1 42920U 17049A   25339.25656068  .00000511  00000+0  14027-3 0  9991", "line2": "2 42920  98.2460  53.7238 0010211 320.6466  39.3986 14.50998366438552"}}, "geometry": {"type": "Point", "coordinates": [57.48242364324305, -19.131928653062293]}}]}